line1,line2,validFromUtcTime
1 00000U 00000E   26001.00000000  .00000000  00000-0  27772-4 0    01,2 00000  88.8750  60.3318 0010177 269.3768 218.1993 13.55304861    05,2026-01-01T00:00:00Z
1 00000U 00000E   26002.00000000  .00000000  00000-0  27772-4 0    02,2 00000  88.8752  60.2176 0010221 266.0516  57.7047 13.55310502    09,2026-01-02T00:00:00Z
